CCSDS_OMM_VERS = 2.0
CREATION_DATE  = 
ORIGINATOR     = 

OBJECT_NAME    = SL-4 R/B
OBJECT_ID      = 2014-021B
CENTER_NAME    = EARTH
REF_FRAME      = TEME
TIME_SYSTEM    = UTC
MEAN_ELEMENT_THEORY = SGP/SGP4

EPOCH          = 2026-02-12T10:18:41.707296
MEAN_MOTION    = 15.38349169
ECCENTRICITY   = .0098869
INCLINATION    = 51.6071
RA_OF_ASC_NODE = 100.4251
ARG_OF_PERICENTER = 10.9312
MEAN_ANOMALY   = 349.3788

EPHEMERIS_TYPE = 0
CLASSIFICATION_TYPE = U
NORAD_CAT_ID   = 39679
ELEMENT_SET_NO = 999
REV_AT_EPOCH   = 65238
BSTAR          = .33547E-3
MEAN_MOTION_DOT = .1483E-3
MEAN_MOTION_DDOT = 0

CCSDS_OMM_VERS = 2.0
CREATION_DATE  = 
ORIGINATOR     = 

OBJECT_NAME    = ALOS-2
OBJECT_ID      = 2014-029A
CENTER_NAME    = EARTH
REF_FRAME      = TEME
TIME_SYSTEM    = UTC
MEAN_ELEMENT_THEORY = SGP/SGP4

EPOCH          = 2026-02-12T13:25:34.288896
MEAN_MOTION    = 14.79449158
ECCENTRICITY   = .0001545
INCLINATION    = 97.9206
RA_OF_ASC_NODE = 142.5190
ARG_OF_PERICENTER = 107.4631
MEAN_ANOMALY   = 252.6750

EPHEMERIS_TYPE = 0
CLASSIFICATION_TYPE = U
NORAD_CAT_ID   = 39766
ELEMENT_SET_NO = 999
REV_AT_EPOCH   = 63315
BSTAR          = .98038E-4
MEAN_MOTION_DOT = .68E-5
MEAN_MOTION_DDOT = 0

CCSDS_OMM_VERS = 2.0
CREATION_DATE  = 
ORIGINATOR     = 

OBJECT_NAME    = YAOGAN-29
OBJECT_ID      = 2015-069A
CENTER_NAME    = EARTH
REF_FRAME      = TEME
TIME_SYSTEM    = UTC
MEAN_ELEMENT_THEORY = SGP/SGP4

EPOCH          = 2026-02-12T13:25:52.751712
MEAN_MOTION    = 14.82967048
ECCENTRICITY   = .0002853
INCLINATION    = 98.0178
RA_OF_ASC_NODE = 71.9194
ARG_OF_PERICENTER = 78.4483
MEAN_ANOMALY   = 281.7051

EPHEMERIS_TYPE = 0
CLASSIFICATION_TYPE = U
NORAD_CAT_ID   = 41038
ELEMENT_SET_NO = 999
REV_AT_EPOCH   = 55215
BSTAR          = .11241E-3
MEAN_MOTION_DOT = .858E-5
MEAN_MOTION_DDOT = 0

CCSDS_OMM_VERS = 2.0
CREATION_DATE  = 
ORIGINATOR     = 

OBJECT_NAME    = ASTRO-H (HITOMI)
OBJECT_ID      = 2016-012A
CENTER_NAME    = EARTH
REF_FRAME      = TEME
TIME_SYSTEM    = UTC
MEAN_ELEMENT_THEORY = SGP/SGP4

EPOCH          = 2026-02-12T09:09:01.886976
MEAN_MOTION    = 15.09820550
ECCENTRICITY   = .0009833
INCLINATION    = 30.9981
RA_OF_ASC_NODE = 159.8424
ARG_OF_PERICENTER = 78.1347
MEAN_ANOMALY   = 282.0393

EPHEMERIS_TYPE = 0
CLASSIFICATION_TYPE = U
NORAD_CAT_ID   = 41337
ELEMENT_SET_NO = 999
REV_AT_EPOCH   = 54840
BSTAR          = .23345E-3
MEAN_MOTION_DOT = .3966E-4
MEAN_MOTION_DDOT = 0

CCSDS_OMM_VERS = 2.0
CREATION_DATE  = 
ORIGINATOR     = 

OBJECT_NAME    = HXMT (HUIYAN)
OBJECT_ID      = 2017-034A
CENTER_NAME    = EARTH
REF_FRAME      = TEME
TIME_SYSTEM    = UTC
MEAN_ELEMENT_THEORY = SGP/SGP4

EPOCH          = 2026-02-12T11:58:22.938240
MEAN_MOTION    = 15.17131335
ECCENTRICITY   = .0030698
INCLINATION    = 43.0132
RA_OF_ASC_NODE = 156.6867
ARG_OF_PERICENTER = 74.7465
MEAN_ANOMALY   = 285.6773

EPHEMERIS_TYPE = 0
CLASSIFICATION_TYPE = U
NORAD_CAT_ID   = 42758
ELEMENT_SET_NO = 999
REV_AT_EPOCH   = 47871
BSTAR          = .37817E-3
MEAN_MOTION_DOT = .7494E-4
MEAN_MOTION_DDOT = 0

CCSDS_OMM_VERS = 2.0
CREATION_DATE  = 
ORIGINATOR     = 

OBJECT_NAME    = CZ-2C R/B
OBJECT_ID      = 2018-054D
CENTER_NAME    = EARTH
REF_FRAME      = TEME
TIME_SYSTEM    = UTC
MEAN_ELEMENT_THEORY = SGP/SGP4

EPOCH          = 2026-02-12T12:12:16.301664
MEAN_MOTION    = 15.99457745
ECCENTRICITY   = .0012078
INCLINATION    = 35.1286
RA_OF_ASC_NODE = 115.9899
ARG_OF_PERICENTER = 61.0112
MEAN_ANOMALY   = 299.1838

EPHEMERIS_TYPE = 0
CLASSIFICATION_TYPE = U
NORAD_CAT_ID   = 43521
ELEMENT_SET_NO = 999
REV_AT_EPOCH   = 42485
BSTAR          = .8744E-3
MEAN_MOTION_DOT = .459644E-2
MEAN_MOTION_DDOT = .89125E-4

CCSDS_OMM_VERS = 2.0
CREATION_DATE  = 
ORIGINATOR     = 

OBJECT_NAME    = H-2A R/B
OBJECT_ID      = 2018-084L
CENTER_NAME    = EARTH
REF_FRAME      = TEME
TIME_SYSTEM    = UTC
MEAN_ELEMENT_THEORY = SGP/SGP4

EPOCH          = 2026-02-12T11:16:30.271584
MEAN_MOTION    = 15.40235610
ECCENTRICITY   = .0026306
INCLINATION    = 98.8761
RA_OF_ASC_NODE = 255.4886
ARG_OF_PERICENTER = 109.8249
MEAN_ANOMALY   = 250.5831

EPHEMERIS_TYPE = 0
CLASSIFICATION_TYPE = U
NORAD_CAT_ID   = 43682
ELEMENT_SET_NO = 999
REV_AT_EPOCH   = 40189
BSTAR          = .56609E-3
MEAN_MOTION_DOT = .22971E-3
MEAN_MOTION_DDOT = 0

CCSDS_OMM_VERS = 2.0
CREATION_DATE  = 
ORIGINATOR     = 

OBJECT_NAME    = SAOCOM 1B
OBJECT_ID      = 2020-059A
CENTER_NAME    = EARTH
REF_FRAME      = TEME
TIME_SYSTEM    = UTC
MEAN_ELEMENT_THEORY = SGP/SGP4

EPOCH          = 2026-02-12T11:24:23.676192
MEAN_MOTION    = 14.82143903
ECCENTRICITY   = .0001432
INCLINATION    = 97.8874
RA_OF_ASC_NODE = 231.1026
ARG_OF_PERICENTER = 88.9734
MEAN_ANOMALY   = 271.1644

EPHEMERIS_TYPE = 0
CLASSIFICATION_TYPE = U
NORAD_CAT_ID   = 46265
ELEMENT_SET_NO = 999
REV_AT_EPOCH   = 29501
BSTAR          = .11588E-3
MEAN_MOTION_DOT = .87E-5
MEAN_MOTION_DDOT = 0

CCSDS_OMM_VERS = 2.0
CREATION_DATE  = 
ORIGINATOR     = 

OBJECT_NAME    = CSS (TIANHE)
OBJECT_ID      = 2021-035A
CENTER_NAME    = EARTH
REF_FRAME      = TEME
TIME_SYSTEM    = UTC
MEAN_ELEMENT_THEORY = SGP/SGP4

EPOCH          = 2026-02-12T08:46:17.567904
MEAN_MOTION    = 15.59540368
ECCENTRICITY   = .0004177
INCLINATION    = 41.4683
RA_OF_ASC_NODE = 2.1188
ARG_OF_PERICENTER = 70.2177
MEAN_ANOMALY   = 289.9112

EPHEMERIS_TYPE = 0
CLASSIFICATION_TYPE = U
NORAD_CAT_ID   = 48274
ELEMENT_SET_NO = 999
REV_AT_EPOCH   = 27365
BSTAR          = .30901E-3
MEAN_MOTION_DOT = .25006E-3
MEAN_MOTION_DDOT = 0

CCSDS_OMM_VERS = 2.0
CREATION_DATE  = 
ORIGINATOR     = 

OBJECT_NAME    = CZ-2C R/B
OBJECT_ID      = 2022-058K
CENTER_NAME    = EARTH
REF_FRAME      = TEME
TIME_SYSTEM    = UTC
MEAN_ELEMENT_THEORY = SGP/SGP4

EPOCH          = 2026-02-12T11:42:01.906848
MEAN_MOTION    = 15.52448308
ECCENTRICITY   = .0042224
INCLINATION    = 50.1888
RA_OF_ASC_NODE = 87.7494
ARG_OF_PERICENTER = 93.6004
MEAN_ANOMALY   = 266.9796

EPHEMERIS_TYPE = 0
CLASSIFICATION_TYPE = U
NORAD_CAT_ID   = 52794
ELEMENT_SET_NO = 999
REV_AT_EPOCH   = 20621
BSTAR          = .55267E-3
MEAN_MOTION_DOT = .35462E-3
MEAN_MOTION_DDOT = 0

