SL-4 R/B                
1 39679U 14021B   26043.42964939  .00014830  00000+0  33547-3 0  9993
2 39679  51.6071 100.4251 0098869  10.9312 349.3788 15.38349169652380
ALOS-2                  
1 39766U 14029A   26043.55942464  .00000680  00000+0  98038-4 0  9996
2 39766  97.9206 142.5190 0001545 107.4631 252.6750 14.79449158633152
YAOGAN-29               
1 41038U 15069A   26043.55963833  .00000858  00000+0  11241-3 0  9996
2 41038  98.0178  71.9194 0002853  78.4483 281.7051 14.82967048552155
ASTRO-H (HITOMI)        
1 41337U 16012A   26043.38127184  .00003966  00000+0  23345-3 0  9990
2 41337  30.9981 159.8424 0009833  78.1347 282.0393 15.09820550548409
HXMT (HUIYAN)           
1 42758U 17034A   26043.49887660  .00007494  00000+0  37817-3 0  9996
2 42758  43.0132 156.6867 0030698  74.7465 285.6773 15.17131335478714
CZ-2C R/B               
1 43521U 18054D   26043.50852201  .00459644  89125-4  87440-3 0  9998
2 43521  35.1286 115.9899 0012078  61.0112 299.1838 15.99457745424852
H-2A R/B                
1 43682U 18084L   26043.46979481  .00022971  00000+0  56609-3 0  9996
2 43682  98.8761 255.4886 0026306 109.8249 250.5831 15.40235610401895
SAOCOM 1B               
1 46265U 20059A   26043.47527403  .00000870  00000+0  11588-3 0  9996
2 46265  97.8874 231.1026 0001432  88.9734 271.1644 14.82143903295019
CSS (TIANHE)            
1 48274U 21035A   26043.36548111  .00025006  00000+0  30901-3 0  9998
2 48274  41.4683   2.1188 0004177  70.2177 289.9112 15.59540368273657
CZ-2C R/B               
1 52794U 22058K   26043.48752207  .00035462  00000+0  55267-3 0  9991
2 52794  50.1888  87.7494 0042224  93.6004 266.9796 15.52448308206210
